1 92920U 17049A   23141.04166667  .00000000  00000+0  43614-4 0  9991
2 92920  97.6407 223.1803 0011733 244.4023 141.8465 15.00937976   -30


